ONEWEB-0128             
1 47274U 20100S   25106.40777702 -.00000643  00000+0 -18241-2 0  9997
2 47274  87.8851  75.6115 0001761  77.7414 282.3911 13.12443402208766
ONEWEB-0129             
1 47275U 20100T   25106.46294704 -.00000068  00000+0 -22374-3 0  9994
2 47275  87.8842  75.5481 0001157 120.7651 239.3591 13.12441575208702
ONEWEB-0130             
1 47276U 20100U   25106.41427119 -.00000114  00000+0 -35190-3 0  9990
2 47276  87.8841  75.5608 0001845  81.7884 278.3454 13.12445350208662
ONEWEB-0131             
1 47277U 20100V   25106.41102539 -.00000263  00000+0 -76517-3 0  9990
2 47277  87.8847  75.5851 0001951  81.4768 278.6582 13.12445088208703
ONEWEB-0132             
1 47278U 20100W   25106.89766575  .00000470  00000+0  12715-2 0  9996
2 47278  87.8845  75.4895 0002162  80.9838 279.1535 13.12443678208668
ONEWEB-0133             
1 47279U 20100X   25106.45631635  .00000107  00000+0  26236-3 0  9998
2 47279  87.8836  75.5592 0001913  78.6801 281.4542 13.12441896208766
ONEWEB-0134             
1 47280U 20100Y   25106.42562759  .00000174  00000+0  44758-3 0  9990
2 47280  87.8837  75.5498 0001729  80.7116 279.4208 13.12444979208730
ONEWEB-0135             
1 47281U 20100Z   25106.47268105 -.00000341  00000+0 -98211-3 0  9995
2 47281  87.8843  75.5733 0001648  70.9592 289.1715 13.12441591208760
